SL-14 R/B               
1 21423U 91042B   25353.26487167  .00000335  00000+0  39358-4 0  9999
2 21423  82.4933 295.6043 0017995 141.1482 219.1029 14.81744509841161
ERS-1                   
1 21574U 91050A   25353.47984946  .00000228  00000+0  87683-4 0  9990
2 21574  98.7900   4.7031 0033017  80.6285 279.8632 14.39369634804199
ARIANE 40 R/B           
1 21610U 91050F   25353.72142083  .00000245  00000+0  85949-4 0  9999
2 21610  98.2156  43.8998 0002359 336.6313  23.4770 14.42818716807468
INTERCOSMOS 25          
1 21819U 91086A   25353.81815684  .00001849  00000+0  36841-3 0  9990
2 21819  82.6067 358.2942 1486372 289.1362  55.4919 12.11753178487016
SL-8 R/B                
1 21876U 92008B   25353.86869043  .00000106  00000+0  93266-4 0  9991
2 21876  82.9267 327.1434 0034738   0.0800  13.1038 13.75960544698448
SL-8 R/B                
1 21938U 92020B   25353.18125541  .00000126  00000+0  11485-3 0  9991
2 21938  82.9299 213.5343 0029322 160.2403 319.5510 13.75528634690068
USA 81                  
1 21949U 92023A   25353.81041954  .00000155  00000+0  49957-4 0  9999
2 21949  85.0079 177.4981 0001159  75.6782 284.4539 14.32329313 83359
COSMOS 2219             
1 22219U 92076A   25352.94968669  .00000164  00000+0  11107-3 0  9997
2 22219  71.0572 186.8510 0019188 318.4515  41.5148 14.14063894706964
SL-16 R/B               
1 22220U 92076B   25353.79920058  .00000252  00000+0  14932-3 0  9990
2 22220  71.0006 356.6609 0014410 224.5107 308.5654 14.16843071710510
COSMOS 2221             
1 22236U 92080A   25353.44063894  .00001460  00000+0  12830-3 0  9997
2 22236  82.5037 355.9112 0016260 101.0299 259.2753 14.95784107768791
SL-16 R/B               
1 22285U 92093B   25353.74051736  .00000167  00000+0  10972-3 0  9998
2 22285  71.0203 172.0998 0002338  47.2487 312.8833 14.15434201701841
COSMOS 2228             
1 22286U 92094A   25353.84362404  .00001691  00000+0  14523-3 0  9997
2 22286  82.5181 313.7369 0017035 205.8538 154.1835 14.96759526764116
