CCSDS_OMM_VERS = 2.0
CREATION_DATE  = 
ORIGINATOR     = 

OBJECT_NAME    = SL-14 R/B
OBJECT_ID      = 1991-042B
CENTER_NAME    = EARTH
REF_FRAME      = TEME
TIME_SYSTEM    = UTC
MEAN_ELEMENT_THEORY = SGP/SGP4

EPOCH          = 2025-12-19T06:21:24.912288
MEAN_MOTION    = 14.81744509
ECCENTRICITY   = .0017995
INCLINATION    = 82.4933
RA_OF_ASC_NODE = 295.6043
ARG_OF_PERICENTER = 141.1482
MEAN_ANOMALY   = 219.1029

EPHEMERIS_TYPE = 0
CLASSIFICATION_TYPE = U
NORAD_CAT_ID   = 21423
ELEMENT_SET_NO = 999
REV_AT_EPOCH   = 84116
BSTAR          = .39358E-4
MEAN_MOTION_DOT = .335E-5
MEAN_MOTION_DDOT = 0

CCSDS_OMM_VERS = 2.0
CREATION_DATE  = 
ORIGINATOR     = 

OBJECT_NAME    = ERS-1
OBJECT_ID      = 1991-050A
CENTER_NAME    = EARTH
REF_FRAME      = TEME
TIME_SYSTEM    = UTC
MEAN_ELEMENT_THEORY = SGP/SGP4

EPOCH          = 2025-12-19T11:30:58.993344
MEAN_MOTION    = 14.39369634
ECCENTRICITY   = .0033017
INCLINATION    = 98.7900
RA_OF_ASC_NODE = 4.7031
ARG_OF_PERICENTER = 80.6285
MEAN_ANOMALY   = 279.8632

EPHEMERIS_TYPE = 0
CLASSIFICATION_TYPE = U
NORAD_CAT_ID   = 21574
ELEMENT_SET_NO = 999
REV_AT_EPOCH   = 80419
BSTAR          = .87683E-4
MEAN_MOTION_DOT = .228E-5
MEAN_MOTION_DDOT = 0

CCSDS_OMM_VERS = 2.0
CREATION_DATE  = 
ORIGINATOR     = 

OBJECT_NAME    = ARIANE 40 R/B
OBJECT_ID      = 1991-050F
CENTER_NAME    = EARTH
REF_FRAME      = TEME
TIME_SYSTEM    = UTC
MEAN_ELEMENT_THEORY = SGP/SGP4

EPOCH          = 2025-12-19T17:18:50.759712
MEAN_MOTION    = 14.42818716
ECCENTRICITY   = .0002359
INCLINATION    = 98.2156
RA_OF_ASC_NODE = 43.8998
ARG_OF_PERICENTER = 336.6313
MEAN_ANOMALY   = 23.4770

EPHEMERIS_TYPE = 0
CLASSIFICATION_TYPE = U
NORAD_CAT_ID   = 21610
ELEMENT_SET_NO = 999
REV_AT_EPOCH   = 80746
BSTAR          = .85949E-4
MEAN_MOTION_DOT = .245E-5
MEAN_MOTION_DDOT = 0

CCSDS_OMM_VERS = 2.0
CREATION_DATE  = 
ORIGINATOR     = 

OBJECT_NAME    = INTERCOSMOS 25
OBJECT_ID      = 1991-086A
CENTER_NAME    = EARTH
REF_FRAME      = TEME
TIME_SYSTEM    = UTC
MEAN_ELEMENT_THEORY = SGP/SGP4

EPOCH          = 2025-12-19T19:38:08.750976
MEAN_MOTION    = 12.11753178
ECCENTRICITY   = .1486372
INCLINATION    = 82.6067
RA_OF_ASC_NODE = 358.2942
ARG_OF_PERICENTER = 289.1362
MEAN_ANOMALY   = 55.4919

EPHEMERIS_TYPE = 0
CLASSIFICATION_TYPE = U
NORAD_CAT_ID   = 21819
ELEMENT_SET_NO = 999
REV_AT_EPOCH   = 48701
BSTAR          = .36841E-3
MEAN_MOTION_DOT = .1849E-4
MEAN_MOTION_DDOT = 0

CCSDS_OMM_VERS = 2.0
CREATION_DATE  = 
ORIGINATOR     = 

OBJECT_NAME    = SL-8 R/B
OBJECT_ID      = 1992-008B
CENTER_NAME    = EARTH
REF_FRAME      = TEME
TIME_SYSTEM    = UTC
MEAN_ELEMENT_THEORY = SGP/SGP4

EPOCH          = 2025-12-19T20:50:54.853152
MEAN_MOTION    = 13.75960544
ECCENTRICITY   = .0034738
INCLINATION    = 82.9267
RA_OF_ASC_NODE = 327.1434
ARG_OF_PERICENTER = 0.0800
MEAN_ANOMALY   = 13.1038

EPHEMERIS_TYPE = 0
CLASSIFICATION_TYPE = U
NORAD_CAT_ID   = 21876
ELEMENT_SET_NO = 999
REV_AT_EPOCH   = 69844
BSTAR          = .93266E-4
MEAN_MOTION_DOT = .106E-5
MEAN_MOTION_DDOT = 0

CCSDS_OMM_VERS = 2.0
CREATION_DATE  = 
ORIGINATOR     = 

OBJECT_NAME    = SL-8 R/B
OBJECT_ID      = 1992-020B
CENTER_NAME    = EARTH
REF_FRAME      = TEME
TIME_SYSTEM    = UTC
MEAN_ELEMENT_THEORY = SGP/SGP4

EPOCH          = 2025-12-19T04:21:00.467424
MEAN_MOTION    = 13.75528634
ECCENTRICITY   = .0029322
INCLINATION    = 82.9299
RA_OF_ASC_NODE = 213.5343
ARG_OF_PERICENTER = 160.2403
MEAN_ANOMALY   = 319.5510

EPHEMERIS_TYPE = 0
CLASSIFICATION_TYPE = U
NORAD_CAT_ID   = 21938
ELEMENT_SET_NO = 999
REV_AT_EPOCH   = 69006
BSTAR          = .11485E-3
MEAN_MOTION_DOT = .126E-5
MEAN_MOTION_DDOT = 0

CCSDS_OMM_VERS = 2.0
CREATION_DATE  = 
ORIGINATOR     = 

OBJECT_NAME    = USA 81
OBJECT_ID      = 1992-023A
CENTER_NAME    = EARTH
REF_FRAME      = TEME
TIME_SYSTEM    = UTC
MEAN_ELEMENT_THEORY = SGP/SGP4

EPOCH          = 2025-12-19T19:27:00.248256
MEAN_MOTION    = 14.32329313
ECCENTRICITY   = .0001159
INCLINATION    = 85.0079
RA_OF_ASC_NODE = 177.4981
ARG_OF_PERICENTER = 75.6782
MEAN_ANOMALY   = 284.4539

EPHEMERIS_TYPE = 0
CLASSIFICATION_TYPE = U
NORAD_CAT_ID   = 21949
ELEMENT_SET_NO = 999
REV_AT_EPOCH   = 8335
BSTAR          = .49957E-4
MEAN_MOTION_DOT = .155E-5
MEAN_MOTION_DDOT = 0

CCSDS_OMM_VERS = 2.0
CREATION_DATE  = 
ORIGINATOR     = 

OBJECT_NAME    = COSMOS 2219
OBJECT_ID      = 1992-076A
CENTER_NAME    = EARTH
REF_FRAME      = TEME
TIME_SYSTEM    = UTC
MEAN_ELEMENT_THEORY = SGP/SGP4

EPOCH          = 2025-12-18T22:47:32.930016
MEAN_MOTION    = 14.14063894
ECCENTRICITY   = .00191885
INCLINATION    = 71.0572
RA_OF_ASC_NODE = 186.8510
ARG_OF_PERICENTER = 318.4515
MEAN_ANOMALY   = 41.5148

EPHEMERIS_TYPE = 0
CLASSIFICATION_TYPE = U
NORAD_CAT_ID   = 22219
ELEMENT_SET_NO = 999
REV_AT_EPOCH   = 70696
BSTAR          = .11107255E-3
MEAN_MOTION_DOT = .164E-5
MEAN_MOTION_DDOT = 0

CCSDS_OMM_VERS = 2.0
CREATION_DATE  = 
ORIGINATOR     = 

OBJECT_NAME    = SL-16 R/B
OBJECT_ID      = 1992-076B
CENTER_NAME    = EARTH
REF_FRAME      = TEME
TIME_SYSTEM    = UTC
MEAN_ELEMENT_THEORY = SGP/SGP4

EPOCH          = 2025-12-19T19:10:50.930112
MEAN_MOTION    = 14.16843071
ECCENTRICITY   = .001441
INCLINATION    = 71.0006
RA_OF_ASC_NODE = 356.6609
ARG_OF_PERICENTER = 224.5107
MEAN_ANOMALY   = 308.5654

EPHEMERIS_TYPE = 0
CLASSIFICATION_TYPE = U
NORAD_CAT_ID   = 22220
ELEMENT_SET_NO = 999
REV_AT_EPOCH   = 71051
BSTAR          = .14932E-3
MEAN_MOTION_DOT = .252E-5
MEAN_MOTION_DDOT = 0

CCSDS_OMM_VERS = 2.0
CREATION_DATE  = 
ORIGINATOR     = 

OBJECT_NAME    = COSMOS 2221
OBJECT_ID      = 1992-080A
CENTER_NAME    = EARTH
REF_FRAME      = TEME
TIME_SYSTEM    = UTC
MEAN_ELEMENT_THEORY = SGP/SGP4

EPOCH          = 2025-12-19T10:34:31.204416
MEAN_MOTION    = 14.95784107
ECCENTRICITY   = .001626
INCLINATION    = 82.5037
RA_OF_ASC_NODE = 355.9112
ARG_OF_PERICENTER = 101.0299
MEAN_ANOMALY   = 259.2753

EPHEMERIS_TYPE = 0
CLASSIFICATION_TYPE = U
NORAD_CAT_ID   = 22236
ELEMENT_SET_NO = 999
REV_AT_EPOCH   = 76879
BSTAR          = .1283E-3
MEAN_MOTION_DOT = .146E-4
MEAN_MOTION_DDOT = 0

CCSDS_OMM_VERS = 2.0
CREATION_DATE  = 
ORIGINATOR     = 

OBJECT_NAME    = SL-16 R/B
OBJECT_ID      = 1992-093B
CENTER_NAME    = EARTH
REF_FRAME      = TEME
TIME_SYSTEM    = UTC
MEAN_ELEMENT_THEORY = SGP/SGP4

EPOCH          = 2025-12-19T17:46:20.699904
MEAN_MOTION    = 14.15434201
ECCENTRICITY   = .0002338
INCLINATION    = 71.0203
RA_OF_ASC_NODE = 172.0998
ARG_OF_PERICENTER = 47.2487
MEAN_ANOMALY   = 312.8833

EPHEMERIS_TYPE = 0
CLASSIFICATION_TYPE = U
NORAD_CAT_ID   = 22285
ELEMENT_SET_NO = 999
REV_AT_EPOCH   = 70184
BSTAR          = .10972E-3
MEAN_MOTION_DOT = .167E-5
MEAN_MOTION_DDOT = 0

CCSDS_OMM_VERS = 2.0
CREATION_DATE  = 
ORIGINATOR     = 

OBJECT_NAME    = COSMOS 2228
OBJECT_ID      = 1992-094A
CENTER_NAME    = EARTH
REF_FRAME      = TEME
TIME_SYSTEM    = UTC
MEAN_ELEMENT_THEORY = SGP/SGP4

EPOCH          = 2025-12-19T20:14:49.117056
MEAN_MOTION    = 14.96759526
ECCENTRICITY   = .0017035
INCLINATION    = 82.5181
RA_OF_ASC_NODE = 313.7369
ARG_OF_PERICENTER = 205.8538
MEAN_ANOMALY   = 154.1835

EPHEMERIS_TYPE = 0
CLASSIFICATION_TYPE = U
NORAD_CAT_ID   = 22286
ELEMENT_SET_NO = 999
REV_AT_EPOCH   = 76411
BSTAR          = .14523E-3
MEAN_MOTION_DOT = .1691E-4
MEAN_MOTION_DDOT = 0

